[{"OBJECT_NAME":"STARLINK-30239","OBJECT_ID":"2023-096B","EPOCH":"2026-03-09T22:00:01.999584","MEAN_MOTION":15.17291033,"ECCENTRICITY":0.00011539,"INCLINATION":42.9992,"RA_OF_ASC_NODE":221.2546,"ARG_OF_PERICENTER":297.0499,"MEAN_ANOMALY":275.4383,"EPHEMERIS_TYPE":0,"CLASSIFICATION_TYPE":"U","NORAD_CAT_ID":57291,"ELEMENT_SET_NO":999,"REV_AT_EPOCH":578,"BSTAR":0.0046931464,"MEAN_MOTION_DOT":0.00096291,"MEAN_MOTION_DDOT":0},{"OBJECT_NAME":"MERCURY ONE (M1)","OBJECT_ID":"2025-276CE","EPOCH":"2026-03-09T17:44:34.856448","MEAN_MOTION":15.18699342,"ECCENTRICITY":0.0001642,"INCLINATION":97.4266,"RA_OF_ASC_NODE":144.005,"ARG_OF_PERICENTER":0.6072,"MEAN_ANOMALY":359.5164,"EPHEMERIS_TYPE":0,"CLASSIFICATION_TYPE":"U","NORAD_CAT_ID":66742,"ELEMENT_SET_NO":999,"REV_AT_EPOCH":1532,"BSTAR":0.00030142011,"MEAN_MOTION_DOT":6.187e-5,"MEAN_MOTION_DDOT":0}]
